{"type": "FeatureCollection", "features": [ {"type": "Feature", "properties": {"norad_id": 17070, "name": "POLAR BEAR", "group": "nnss", "lat": -23.06171625177537, "lon": -176.52655775771137, "alt_km": 1006.5020411227224, "timestamp": "2025-12-16T03:53:27.324038+00:00", "meta": {"OBJECT_NAME": "POLAR BEAR", "OBJECT_ID": "1986-088A", "EPOCH": "2025-12-15T07:53:16.873728", "MEAN_MOTION": 13.7525125, "ECCENTRICITY": 0.00411131, "INCLINATION": 89.6172, "RA_OF_ASC_NODE": 183.6701, "ARG_OF_PERICENTER": 111.7701, "MEAN_ANOMALY": 61.7908, "EPHEMERIS_TYPE": 0, "CLASSIFICATION_TYPE": "U", "NORAD_CAT_ID": 17070, "ELEMENT_SET_NO": 999, "REV_AT_EPOCH": 96014, "BSTAR": 0.00012095624, "MEAN_MOTION_DOT": 1.28e-06, "MEAN_MOTION_DDOT": 0}, "tle": {"line1": "1 17070U 86088A   25349.32866752  .00000128  00000+0  12096-3 0  9998", "line2": "2 17070  89.6172 183.6701 0041113 111.7701  61.7908 13.75251250960146"}}, "geometry": {"type": "Point", "coordinates": [-176.52655775771137, -23.06171625177537]}}, {"type": "Feature", "properties": {"norad_id": 18361, "name": "OSCAR 27", "group": "nnss", "lat": -41.757515891753464, "lon": -100.9338589208656, "alt_km": 1021.3418739895124, "timestamp": "2025-12-16T03:53:27.324048+00:00", "meta": {"OBJECT_NAME": "OSCAR 27", "OBJECT_ID": "1987-080A", "EPOCH": "2025-12-15T07:08:53.182464", "MEAN_MOTION": 13.44907175, "ECCENTRICITY": 0.01031021, "INCLINATION": 90.3742, "RA_OF_ASC_NODE": 79.3681, "ARG_OF_PERICENTER": 216.4081, "MEAN_ANOMALY": 143.0025, "EPHEMERIS_TYPE": 0, "CLASSIFICATION_TYPE": "U", "NORAD_CAT_ID": 18361, "ELEMENT_SET_NO": 999, "REV_AT_EPOCH": 87591, "BSTAR": 0.00015039953, "MEAN_MOTION_DOT": 9.9e-07, "MEAN_MOTION_DDOT": 0}, "tle": {"line1": "1 18361U 87080A   25349.29783776  .00000099  00000+0  15040-3 0  9994", "line2": "2 18361  90.3742  79.3681 0103102 216.4081 143.0025 13.44907175875915"}}, "geometry": {"type": "Point", "coordinates": [-100.9338589208656, -41.757515891753464]}}, {"type": "Feature", "properties": {"norad_id": 18362, "name": "OSCAR 29", "group": "nnss", "lat": -47.95295806625596, "lon": -100.55690663946636, "alt_km": 1022.8971208294251, "timestamp": "2025-12-16T03:53:27.324059+00:00", "meta": {"OBJECT_NAME": "OSCAR 29", "OBJECT_ID": "1987-080B", "EPOCH": "2025-12-15T07:24:49.493952", "MEAN_MOTION": 13.44448856, "ECCENTRICITY": 0.01040608, "INCLINATION": 90.3753, "RA_OF_ASC_NODE": 79.8275, "ARG_OF_PERICENTER": 239.7081, "MEAN_ANOMALY": 181.2217, "EPHEMERIS_TYPE": 0, "CLASSIFICATION_TYPE": "U", "NORAD_CAT_ID": 18362, "ELEMENT_SET_NO": 999, "REV_AT_EPOCH": 87544, "BSTAR": 0.00013894462, "MEAN_MOTION_DOT": 9.1e-07, "MEAN_MOTION_DDOT": 0}, "tle": {"line1": "1 18362U 87080B   25349.30890618  .00000091  00000+0  13894-3 0  9998", "line2": "2 18362  90.3753  79.8275 0104060 239.7081 181.2217 13.44448856875445"}}, "geometry": {"type": "Point", "coordinates": [-100.55690663946636, -47.95295806625596]}}, {"type": "Feature", "properties": {"norad_id": 19070, "name": "OSCAR 23", "group": "nnss", "lat": 21.934199735951683, "lon": -163.37168238072553, "alt_km": 1015.1064805980677, "timestamp": "2025-12-16T03:53:27.324070+00:00", "meta": {"OBJECT_NAME": "OSCAR 23", "OBJECT_ID": "1988-033A", "EPOCH": "2025-12-15T09:04:10.371648", "MEAN_MOTION": 13.27787434, "ECCENTRICITY": 0.01897485, "INCLINATION": 90.3211, "RA_OF_ASC_NODE": 16.4745, "ARG_OF_PERICENTER": 172.5901, "MEAN_ANOMALY": 199.3987, "EPHEMERIS_TYPE": 0, "CLASSIFICATION_TYPE": "U", "NORAD_CAT_ID": 19070, "ELEMENT_SET_NO": 999, "REV_AT_EPOCH": 82288, "BSTAR": 0.00018528037, "MEAN_MOTION_DOT": 1.01e-06, "MEAN_MOTION_DDOT": 0}, "tle": {"line1": "1 19070U 88033A   25349.37789782  .00000101  00000+0  18528-3 0  9991", "line2": "2 19070  90.3211  16.4745 0189748 172.5901 199.3987 13.27787434822884"}}, "geometry": {"type": "Point", "coordinates": [-163.37168238072553, 21.934199735951683]}}, {"type": "Feature", "properties": {"norad_id": 19071, "name": "OSCAR 32", "group": "nnss", "lat": -87.2311287026428, "lon": 23.299737334371404, "alt_km": 1220.8586133708204, "timestamp": "2025-12-16T03:53:27.324080+00:00", "meta": {"OBJECT_NAME": "OSCAR 32", "OBJECT_ID": "1988-033B", "EPOCH": "2025-12-15T08:30:28.550304", "MEAN_MOTION": 13.27954305, "ECCENTRICITY": 0.01885715, "INCLINATION": 90.3216, "RA_OF_ASC_NODE": 16.6059, "ARG_OF_PERICENTER": 159.5373, "MEAN_ANOMALY": 212.5443, "EPHEMERIS_TYPE": 0, "CLASSIFICATION_TYPE": "U", "NORAD_CAT_ID": 19071, "ELEMENT_SET_NO": 999, "REV_AT_EPOCH": 82300, "BSTAR": 0.00013797367, "MEAN_MOTION_DOT": 7.8e-07, "MEAN_MOTION_DDOT": 0}, "tle": {"line1": "1 19071U 88033B   25349.35449711  .00000078  00000+0  13797-3 0  9991", "line2": "2 19071  90.3216  16.6059 0188571 159.5373 212.5443 13.27954305823004"}}, "geometry": {"type": "Point", "coordinates": [23.299737334371404, -87.2311287026428]}}, {"type": "Feature", "properties": {"norad_id": 19223, "name": "NOVA 2", "group": "nnss", "lat": 46.43160617321024, "lon": 78.28174505718502, "alt_km": 1151.6255731917026, "timestamp": "2025-12-16T03:53:27.324090+00:00", "meta": {"OBJECT_NAME": "NOVA 2", "OBJECT_ID": "1988-052A", "EPOCH": "2025-12-15T08:01:17.059872", "MEAN_MOTION": 13.22936168, "ECCENTRICITY": 0.00303703, "INCLINATION": 89.9872, "RA_OF_ASC_NODE": 78.2693, "ARG_OF_PERICENTER": 9.8298, "MEAN_ANOMALY": 55.8232, "EPHEMERIS_TYPE": 0, "CLASSIFICATION_TYPE": "U", "NORAD_CAT_ID": 19223, "ELEMENT_SET_NO": 999, "REV_AT_EPOCH": 80982, "BSTAR": 6.2442495e-05, "MEAN_MOTION_DOT": 3.5e-07, "MEAN_MOTION_DDOT": 0}, "tle": {"line1": "1 19223U 88052A   25349.33422523  .00000035  00000+0  62442-4 0  9996", "line2": "2 19223  89.9872  78.2693 0030370   9.8298  55.8232 13.22936168809829"}}, "geometry": {"type": "Point", "coordinates": [78.28174505718502, 46.43160617321024]}}, {"type": "Feature", "properties": {"norad_id": 19419, "name": "OSCAR 25", "group": "nnss", "lat": 5.433244983862781, "lon": 20.252325985178242, "alt_km": 1146.4035233436525, "timestamp": "2025-12-16T03:53:27.324101+00:00", "meta": {"OBJECT_NAME": "OSCAR 25", "OBJECT_ID": "1988-074A", "EPOCH": "2025-12-15T08:14:49.522272", "MEAN_MOTION": 13.4262376, "ECCENTRICITY": 0.00945669, "INCLINATION": 90.0346, "RA_OF_ASC_NODE": 20.2528, "ARG_OF_PERICENTER": 238.2902, "MEAN_ANOMALY": 132.6112, "EPHEMERIS_TYPE": 0, "CLASSIFICATION_TYPE": "U", "NORAD_CAT_ID": 19419, "ELEMENT_SET_NO": 999, "REV_AT_EPOCH": 82675, "BSTAR": 0.00017623205, "MEAN_MOTION_DOT": 1.11e-06, "MEAN_MOTION_DDOT": 0}, "tle": {"line1": "1 19419U 88074A   25349.34362873  .00000111  00000+0  17623-3 0  9994", "line2": "2 19419  90.0346  20.2528 0094566 238.2902 132.6112 13.42623760826751"}}, "geometry": {"type": "Point", "coordinates": [20.252325985178242, 5.433244983862781]}}, {"type": "Feature", "properties": {"norad_id": 19420, "name": "OSCAR 31", "group": "nnss", "lat": -68.37857473792451, "lon": -159.48522284214638, "alt_km": 1040.9789864649501, "timestamp": "2025-12-16T03:53:27.324111+00:00", "meta": {"OBJECT_NAME": "OSCAR 31", "OBJECT_ID": "1988-074B", "EPOCH": "2025-12-15T08:49:31.276704", "MEAN_MOTION": 13.42584948, "ECCENTRICITY": 0.0092896, "INCLINATION": 90.0362, "RA_OF_ASC_NODE": 20.6033, "ARG_OF_PERICENTER": 232.3453, "MEAN_ANOMALY": 138.351, "EPHEMERIS_TYPE": 0, "CLASSIFICATION_TYPE": "U", "NORAD_CAT_ID": 19420, "ELEMENT_SET_NO": 999, "REV_AT_EPOCH": 82686, "BSTAR": 0.00014482295, "MEAN_MOTION_DOT": 9.3e-07, "MEAN_MOTION_DDOT": 0}, "tle": {"line1": "1 19420U 88074B   25349.36772311  .00000093  00000+0  14482-3 0  9999", "line2": "2 19420  90.0362  20.6033 0092896 232.3453 138.3510 13.42584948826867"}}, "geometry": {"type": "Point", "coordinates": [-159.48522284214638, -68.37857473792451]}}]}